0 FENGYUN 1C DEB
1 29873U 99025FT  13281.45083571  .00000026  00000-0  52392-4 0  1458
2 29873 099.3269 357.2893 0091472 021.8867 040.1579 13.94331127342707
0 FENGYUN 1C DEB
1 29873U 99025FT  13283.46044162  .00000066  00000-0  81348-4 0  1462
2 29873 099.3269 359.3183 0091355 016.4121 047.5922 13.94332074342980
0 FENGYUN 1C DEB
1 29873U 99025FT  13285.46988580  .00000169  00000-0  15576-3 0  1479
2 29873 099.3268 001.3473 0091262 010.9399 054.2211 13.94331714343266
0 FENGYUN 1C DEB
1 29873U 99025FT  13287.47927325  .00000359  00000-0  29420-3 0  1487
2 29873 099.3265 003.3763 0091209 005.5009 060.5339 13.94331466343542
0 FENGYUN 1C DEB
1 29873U 99025FT  13289.78624221  .00000503  00000-0  39907-3 0  1495
2 29873 099.3260 005.7059 0091148 359.2314 120.6121 13.94333163343869
0 FENGYUN 1C DEB
1 29873U 99025FT  13291.79578529  .00000463  00000-0  36955-3 0  1505
2 29873 099.3257 007.7350 0091130 353.7297 127.7764 13.94335737344143
0 FENGYUN 1C DEB
1 29873U 99025FT  13293.80428725  .00000329  00000-0  27217-3 0  1514
2 29873 099.3256 009.7632 0091059 348.2360 129.7232 13.94338925344422
